{
  "norad_id": 60737,
  "name": "STARLINK-32289",
  "history": [
    {
      "epoch": "2026-03-28T17:41:52.345824Z",
      "apogee_km": 476.2639331021546,
      "perigee_km": 474.20134297589084,
      "latitude_deg": 1.3914670045832599e-05,
      "longitude_deg": 88.57474105200338,
      "height_km": 476.1962982748646,
      "semi_major_axis_km": 6853.369638039022,
      "eccentricity": 0.00015048,
      "inclination_deg": 53.1605,
      "raan_deg": 180.1964,
      "arg_perigee_deg": 93.6614,
      "mean_anomaly_deg": 266.4559,
      "mean_motion_rev_day": 15.30194116
    }
  ]
}