{"fetched_at":"2026-03-29T16:36:15Z","count":15609,"tles":[{"name":"STARLINK-32289","line1":"1 60737U 24152T   26087.73741141  .00000613  00000+0  32820-4 0  9996","line2":"2 60737  53.1605 180.1964 0001504  93.6614 266.4559 15.30194116 89761","category":"Starlink"}]}